STARLINK-30899          
1 58420U 23180U   26068.38888234  .00001297  00000+0  56666-4 0  9990
2 58420  43.0007  53.9313 0001219 272.5860  87.4852 15.27566389127468
OTTER                   
1 62623U 25009Q   26068.72300813  .00012198  00000+0  45151-3 0  9990
2 62623  97.4065 151.3812 0003573 310.7710  49.3219 15.27809545 63722
