[{"OBJECT_NAME":"STARLINK-30899","OBJECT_ID":"2023-180U","EPOCH":"2026-03-09T09:19:59.434176","MEAN_MOTION":15.27566389,"ECCENTRICITY":0.00012194,"INCLINATION":43.0007,"RA_OF_ASC_NODE":53.9313,"ARG_OF_PERICENTER":272.586,"MEAN_ANOMALY":87.4852,"EPHEMERIS_TYPE":0,"CLASSIFICATION_TYPE":"U","NORAD_CAT_ID":58420,"ELEMENT_SET_NO":999,"REV_AT_EPOCH":12746,"BSTAR":5.6665656e-5,"MEAN_MOTION_DOT":1.297e-5,"MEAN_MOTION_DDOT":0},{"OBJECT_NAME":"OTTER","OBJECT_ID":"2025-009Q","EPOCH":"2026-03-09T17:21:07.902432","MEAN_MOTION":15.27809545,"ECCENTRICITY":0.00035728,"INCLINATION":97.4065,"RA_OF_ASC_NODE":151.3812,"ARG_OF_PERICENTER":310.771,"MEAN_ANOMALY":49.3219,"EPHEMERIS_TYPE":0,"CLASSIFICATION_TYPE":"U","NORAD_CAT_ID":62623,"ELEMENT_SET_NO":999,"REV_AT_EPOCH":6372,"BSTAR":0.00045151206,"MEAN_MOTION_DOT":0.00012198,"MEAN_MOTION_DDOT":0}]
